[{"OBJECT_NAME":"SARSAT 7 (NOAA 15)","OBJECT_ID":"1998-030A","EPOCH":"2025-03-09T21:13:49.603296","MEAN_MOTION":14.26903753,"ECCENTRICITY":0.0009117,"INCLINATION":98.5459,"RA_OF_ASC_NODE":96.1816,"ARG_OF_PERICENTER":266.8558,"MEAN_ANOMALY":93.158,"EPHEMERIS_TYPE":0,"CLASSIFICATION_TYPE":"U","NORAD_CAT_ID":25338,"ELEMENT_SET_NO":999,"REV_AT_EPOCH":39507,"BSTAR":0.0001574,"MEAN_MOTION_DOT":3.39e-6,"MEAN_MOTION_DDOT":0},{"OBJECT_NAME":"GPS BIIR-08","OBJECT_ID":"2003-005A","EPOCH":"2025-03-08T22:13:38.616096","MEAN_MOTION":2.00559748,"ECCENTRICITY":0.0143526,"INCLINATION":55.0075,"RA_OF_ASC_NODE":233.4592,"ARG_OF_PERICENTER":49.7981,"MEAN_ANOMALY":307.5978,"EPHEMERIS_TYPE":0,"CLASSIFICATION_TYPE":"U","NORAD_CAT_ID":27663,"ELEMENT_SET_NO":999,"REV_AT_EPOCH":16197,"BSTAR":0,"MEAN_MOTION_DOT":3.1e-7,"MEAN_MOTION_DDOT":0},{"OBJECT_NAME":"GPS BIIR-11","OBJECT_ID":"2004-009A","EPOCH":"2025-03-09T11:20:38.535936","MEAN_MOTION":2.00570275,"ECCENTRICITY":0.0101446,"INCLINATION":55.2233,"RA_OF_ASC_NODE":294.4143,"ARG_OF_PERICENTER":157.1651,"MEAN_ANOMALY":29.7524,"EPHEMERIS_TYPE":0,"CLASSIFICATION_TYPE":"U","NORAD_CAT_ID":28190,"ELEMENT_SET_NO":999,"REV_AT_EPOCH":15362,"BSTAR":0,"MEAN_MOTION_DOT":-1.2e-7,"MEAN_MOTION_DDOT":0},{"OBJECT_NAME":"GPS BIIR-13","OBJECT_ID":"2004-045A","EPOCH":"2025-03-05T15:32:28.739040","MEAN_MOTION":2.00657176,"ECCENTRICITY":0.0164237,"INCLINATION":55.3593,"RA_OF_ASC_NODE":343.7348,"ARG_OF_PERICENTER":300.8074,"MEAN_ANOMALY":57.1622,"EPHEMERIS_TYPE":0,"CLASSIFICATION_TYPE":"U","NORAD_CAT_ID":28474,"ELEMENT_SET_NO":999,"REV_AT_EPOCH":14902,"BSTAR":0,"MEAN_MOTION_DOT":-9.8e-7,"MEAN_MOTION_DDOT":0},{"OBJECT_NAME":"SARSAT 10 (NOAA 18)","OBJECT_ID":"2005-018A","EPOCH":"2025-03-09T21:19:52.324320","MEAN_MOTION":14.13536521,"ECCENTRICITY":0.0014505,"INCLINATION":98.8472,"RA_OF_ASC_NODE":149.3856,"ARG_OF_PERICENTER":33.9438,"MEAN_ANOMALY":326.266,"EPHEMERIS_TYPE":0,"CLASSIFICATION_TYPE":"U","NORAD_CAT_ID":28654,"ELEMENT_SET_NO":999,"REV_AT_EPOCH":2071,"BSTAR":0.00021318,"MEAN_MOTION_DOT":3.58e-6,"MEAN_MOTION_DDOT":0},{"OBJECT_NAME":"GPS BIIR-14M","OBJECT_ID":"2005-038A","EPOCH":"2025-03-09T10:19:52.631328","MEAN_MOTION":2.00567323,"ECCENTRICITY":0.0133622,"INCLINATION":55.268,"RA_OF_ASC_NODE":291.886,"ARG_OF_PERICENTER":289.4805,"MEAN_ANOMALY":253.3073,"EPHEMERIS_TYPE":0,"CLASSIFICATION_TYPE":"U","NORAD_CAT_ID":28874,"ELEMENT_SET_NO":999,"REV_AT_EPOCH":14251,"BSTAR":0,"MEAN_MOTION_DOT":-6.0e-8,"MEAN_MOTION_DDOT":0},{"OBJECT_NAME":"METEOSAT-9 (MSG-2)","OBJECT_ID":"2005-049B","EPOCH":"2025-03-09T15:45:34.289568","MEAN_MOTION":1.0027852,"ECCENTRICITY":7.66e-5,"INCLINATION":8.3005,"RA_OF_ASC_NODE":58.5453,"ARG_OF_PERICENTER":336.4003,"MEAN_ANOMALY":54.8167,"EPHEMERIS_TYPE":0,"CLASSIFICATION_TYPE":"U","NORAD_CAT_ID":28912,"ELEMENT_SET_NO":999,"REV_AT_EPOCH":235,"BSTAR":0,"MEAN_MOTION_DOT":1.1e-6,"MEAN_MOTION_DDOT":0},{"OBJECT_NAME":"GOES 13","OBJECT_ID":"2006-018A","EPOCH":"2025-03-09T18:09:51.444288","MEAN_MOTION":0.98833077,"ECCENTRICITY":0.0066033,"INCLINATION":3.3216,"RA_OF_ASC_NODE":82.0854,"ARG_OF_PERICENTER":261.784,"MEAN_ANOMALY":95.989,"EPHEMERIS_TYPE":0,"CLASSIFICATION_TYPE":"U","NORAD_CAT_ID":29155,"ELEMENT_SET_NO":999,"REV_AT_EPOCH":3865,"BSTAR":0,"MEAN_MOTION_DOT":-1.94e-6,"MEAN_MOTION_DDOT":0},{"OBJECT_NAME":"GPS BIIR-16M","OBJECT_ID":"2006-052A","EPOCH":"2025-03-09T05:50:13.338816","MEAN_MOTION":2.00556903,"ECCENTRICITY":0.008774,"INCLINATION":55.0463,"RA_OF_ASC_NODE":232.4444,"ARG_OF_PERICENTER":85.0346,"MEAN_ANOMALY":275.9389,"EPHEMERIS_TYPE":0,"CLASSIFICATION_TYPE":"U","NORAD_CAT_ID":29601,"ELEMENT_SET_NO":999,"REV_AT_EPOCH":13408,"BSTAR":0,"MEAN_MOTION_DOT":2.5e-7,"MEAN_MOTION_DDOT":0},{"OBJECT_NAME":"GPS BIIR-17M","OBJECT_ID":"2007-047A","EPOCH":"2025-03-08T01:21:24.139296","MEAN_MOTION":2.00551816,"ECCENTRICITY":0.015897,"INCLINATION":53.7615,"RA_OF_ASC_NODE":99.3184,"ARG_OF_PERICENTER":79.9175,"MEAN_ANOMALY":281.9343,"EPHEMERIS_TYPE":0,"CLASSIFICATION_TYPE":"U","NORAD_CAT_ID":32260,"ELEMENT_SET_NO":999,"REV_AT_EPOCH":12746,"BSTAR":0,"MEAN_MOTION_DOT":-6.0e-8,"MEAN_MOTION_DDOT":0},{"OBJECT_NAME":"GPS BIIR-18M","OBJECT_ID":"2007-062A","EPOCH":"2025-03-06T02:57:28.768032","MEAN_MOTION":2.005616,"ECCENTRICITY":0.0029312,"INCLINATION":55.4158,"RA_OF_ASC_NODE":292.9218,"ARG_OF_PERICENTER":153.4463,"MEAN_ANOMALY":19.8971,"EPHEMERIS_TYPE":0,"CLASSIFICATION_TYPE":"U","NORAD_CAT_ID":32384,"ELEMENT_SET_NO":999,"REV_AT_EPOCH":12612,"BSTAR":0,"MEAN_MOTION_DOT":-1.4e-7,"MEAN_MOTION_DDOT":0},{"OBJECT_NAME":"SARSAT 12 (NOAA 19)","OBJECT_ID":"2009-005A","EPOCH":"2025-03-09T21:07:32.376576","MEAN_MOTION":14.13304126,"ECCENTRICITY":0.0012813,"INCLINATION":99.0084,"RA_OF_ASC_NODE":133.0333,"ARG_OF_PERICENTER":261.5885,"MEAN_ANOMALY":98.3835,"EPHEMERIS_TYPE":0,"CLASSIFICATION_TYPE":"U","NORAD_CAT_ID":33591,"ELEMENT_SET_NO":999,"REV_AT_EPOCH":82889,"BSTAR":0.00020511,"MEAN_MOTION_DOT":3.39e-6,"MEAN_MOTION_DDOT":0},{"OBJECT_NAME":"GOES 14","OBJECT_ID":"2009-033A","EPOCH":"2025-03-09T12:30:18.904032","MEAN_MOTION":1.00268928,"ECCENTRICITY":0.0001156,"INCLINATION":0.4765,"RA_OF_ASC_NODE":89.5152,"ARG_OF_PERICENTER":178.0401,"MEAN_ANOMALY":339.4093,"EPHEMERIS_TYPE":0,"CLASSIFICATION_TYPE":"U","NORAD_CAT_ID":35491,"ELEMENT_SET_NO":999,"REV_AT_EPOCH":193,"BSTAR":0,"MEAN_MOTION_DOT":-8.6e-7,"MEAN_MOTION_DDOT":0},{"OBJECT_NAME":"GOES 15","OBJECT_ID":"2010-008A","EPOCH":"2025-03-09T18:27:14.841792","MEAN_MOTION":1.0027073,"ECCENTRICITY":0.0003951,"INCLINATION":0.0775,"RA_OF_ASC_NODE":92.5522,"ARG_OF_PERICENTER":188.4716,"MEAN_ANOMALY":224.7562,"EPHEMERIS_TYPE":0,"CLASSIFICATION_TYPE":"U","NORAD_CAT_ID":36411,"ELEMENT_SET_NO":999,"REV_AT_EPOCH":5498,"BSTAR":0,"MEAN_MOTION_DOT":2.1e-7,"MEAN_MOTION_DDOT":0},{"OBJECT_NAME":"GSAT0101 (GALILEO-PFM)","OBJECT_ID":"2011-060A","EPOCH":"2025-03-01T01:27:32.624064","MEAN_MOTION":1.70475553,"ECCENTRICITY":0.0004142,"INCLINATION":57.114,"RA_OF_ASC_NODE":354.5841,"ARG_OF_PERICENTER":343.0067,"MEAN_ANOMALY":16.984,"EPHEMERIS_TYPE":0,"CLASSIFICATION_TYPE":"U","NORAD_CAT_ID":37846,"ELEMENT_SET_NO":999,"REV_AT_EPOCH":8318,"BSTAR":0,"MEAN_MOTION_DOT":-8.4e-7,"MEAN_MOTION_DDOT":0},{"OBJECT_NAME":"GSAT0102 (GALILEO-FM2)","OBJECT_ID":"2011-060B","EPOCH":"2025-03-03T12:38:24.332064","MEAN_MOTION":1.70475674,"ECCENTRICITY":0.0005351,"INCLINATION":57.1119,"RA_OF_ASC_NODE":354.5177,"ARG_OF_PERICENTER":337.7414,"MEAN_ANOMALY":140.9033,"EPHEMERIS_TYPE":0,"CLASSIFICATION_TYPE":"U","NORAD_CAT_ID":37847,"ELEMENT_SET_NO":999,"REV_AT_EPOCH":8310,"BSTAR":0,"MEAN_MOTION_DOT":-9.2e-7,"MEAN_MOTION_DDOT":0},{"OBJECT_NAME":"LUCH 5A","OBJECT_ID":"2011-074B","EPOCH":"2025-03-09T20:40:11.753760","MEAN_MOTION":1.0027171,"ECCENTRICITY":0.0002685,"INCLINATION":7.5687,"RA_OF_ASC_NODE":80.7822,"ARG_OF_PERICENTER":249.5105,"MEAN_ANOMALY":314.3864,"EPHEMERIS_TYPE":0,"CLASSIFICATION_TYPE":"U","NORAD_CAT_ID":37951,"ELEMENT_SET_NO":999,"REV_AT_EPOCH":4839,"BSTAR":0,"MEAN_MOTION_DOT":-6.5e-7,"MEAN_MOTION_DDOT":0}]
