SARSAT 7 (NOAA 15)      
1 25338U 98030A   25068.88460189  .00000339  00000+0  15740-3 0  9990
2 25338  98.5459  96.1816 0009117 266.8558  93.1580 14.26903753395072
GPS BIIR-08             
1 27663U 03005A   25067.92614139  .00000031  00000+0  00000+0 0  9999
2 27663  55.0075 233.4592 0143526  49.7981 307.5978  2.00559748161978
GPS BIIR-11             
1 28190U 04009A   25068.47266824 -.00000012  00000+0  00000+0 0  9995
2 28190  55.2233 294.4143 0101446 157.1651  29.7524  2.00570275153625
GPS BIIR-13             
1 28474U 04045A   25064.64755485 -.00000098  00000+0  00000+0 0  9995
2 28474  55.3593 343.7348 0164237 300.8074  57.1622  2.00657176149027
SARSAT 10 (NOAA 18)     
1 28654U 05018A   25068.88880005  .00000358  00000+0  21318-3 0  9990
2 28654  98.8472 149.3856 0014505  33.9438 326.2660 14.13536521 20712
GPS BIIR-14M            
1 28874U 05038A   25068.43047027 -.00000006  00000+0  00000+0 0  9998
2 28874  55.2680 291.8860 0133622 289.4805 253.3073  2.00567323142518
METEOSAT-9 (MSG-2)      
1 28912U 05049B   25068.65664687  .00000110  00000+0  00000+0 0  9999
2 28912   8.3005  58.5453 0000766 336.4003  54.8167  1.00278520  2354
GOES 13                 
1 29155U 06018A   25068.75684542 -.00000194  00000+0  00000+0 0  9992
2 29155   3.3216  82.0854 0066033 261.7840  95.9890  0.98833077 38659
GPS BIIR-16M            
1 29601U 06052A   25068.24320994  .00000025  00000+0  00000+0 0  9990
2 29601  55.0463 232.4444 0087740  85.0346 275.9389  2.00556903134087
GPS BIIR-17M            
1 32260U 07047A   25067.05652939 -.00000006  00000+0  00000+0 0  9995
2 32260  53.7615  99.3184 0158970  79.9175 281.9343  2.00551816127462
GPS BIIR-18M            
1 32384U 07062A   25065.12324963 -.00000014  00000+0  00000+0 0  9997
2 32384  55.4158 292.9218 0029312 153.4463  19.8971  2.00561600126123
SARSAT 12 (NOAA 19)     
1 33591U 09005A   25068.88023584  .00000339  00000+0  20511-3 0  9990
2 33591  99.0084 133.0333 0012813 261.5885  98.3835 14.13304126828895
GOES 14                 
1 35491U 09033A   25068.52105213 -.00000086  00000+0  00000+0 0  9990
2 35491   0.4765  89.5152 0001156 178.0401 339.4093  1.00268928  1930
GOES 15                 
1 36411U 10008A   25068.76892178  .00000021  00000+0  00000+0 0  9994
2 36411   0.0775  92.5522 0003951 188.4716 224.7562  1.00270730 54988
GSAT0101 (GALILEO-PFM)  
1 37846U 11060A   25060.06079426 -.00000084  00000+0  00000+0 0  9994
2 37846  57.1140 354.5841 0004142 343.0067  16.9840  1.70475553 83187
GSAT0102 (GALILEO-FM2)  
1 37847U 11060B   25062.52667051 -.00000092  00000+0  00000+0 0  9994
2 37847  57.1119 354.5177 0005351 337.7414 140.9033  1.70475674 83103
LUCH 5A                 
1 37951U 11074B   25068.86124715 -.00000065  00000+0  00000+0 0  9993
2 37951   7.5687  80.7822 0002685 249.5105 314.3864  1.00271710 48396
